{
  "type": "FeatureCollection",
  "generator": "overpass-turbo",
  "copyright": "The data included in this document is from www.openstreetmap.org. The data is made available under ODbL.",
  "timestamp": "2026-07-13T07:18:41Z",
  "features": [
    {
      "type": "Feature",
      "properties": {
        "@id": "way/30434845",
        "covered": "yes",
        "handrail": "yes",
        "highway": "steps",
        "incline": "up",
        "lit": "yes"
      },
      "geometry": {
        "type": "LineString",
        "coordinates": [
          [
            79.4051741,
            13.6467608
          ],
          [
            79.4048206,
            13.6473253
          ],
          [
            79.4047806,
            13.6476138
          ],
          [
            79.404651,
            13.647733
          ],
          [
            79.4045755,
            13.6479673
          ],
          [
            79.404308,
            13.6483202
          ],
          [
            79.4041272,
            13.6484629
          ],
          [
            79.4036733,
            13.6488123
          ],
          [
            79.4033728,
            13.6492122
          ],
          [
            79.4032449,
            13.6496805
          ],
          [
            79.4032297,
            13.6501232
          ],
          [
            79.4030532,
            13.6504679
          ],
          [
            79.4029367,
            13.6508866
          ],
          [
            79.4027328,
            13.6511665
          ],
          [
            79.4022436,
            13.651534
          ],
          [
            79.4017578,
            13.6520205
          ],
          [
            79.4011685,
            13.6529536
          ],
          [
            79.4011043,
            13.6533929
          ],
          [
            79.4006826,
            13.6536606
          ],
          [
            79.4007098,
            13.6539931
          ],
          [
            79.4005805,
            13.6542867
          ],
          [
            79.3995,
            13.6551771
          ],
          [
            79.3991859,
            13.6554422
          ],
          [
            79.3989192,
            13.6556396
          ],
          [
            79.3987166,
            13.6561464
          ],
          [
            79.3988156,
            13.6562587
          ],
          [
            79.3986798,
            13.6566523
          ],
          [
            79.3986261,
            13.6567096
          ],
          [
            79.3985314,
            13.6569083
          ],
          [
            79.3983315,
            13.6570451
          ],
          [
            79.3982976,
            13.657107
          ],
          [
            79.3982672,
            13.6571211
          ],
          [
            79.3981854,
            13.6571386
          ],
          [
            79.3979815,
            13.6573668
          ],
          [
            79.3979263,
            13.657595
          ],
          [
            79.3978768,
            13.6576904
          ],
          [
            79.3978231,
            13.6577675
          ],
          [
            79.3977087,
            13.6578983
          ],
          [
            79.3975091,
            13.6581266
          ],
          [
            79.3969565,
            13.6583404
          ],
          [
            79.3965664,
            13.6587261
          ],
          [
            79.3965053,
            13.6587827
          ],
          [
            79.3956347,
            13.6590079
          ],
          [
            79.3955489,
            13.6590525
          ],
          [
            79.3950085,
            13.6591915
          ],
          [
            79.394463,
            13.6594814
          ],
          [
            79.3943789,
            13.6595758
          ],
          [
            79.3942537,
            13.6596393
          ],
          [
            79.3937338,
            13.6597611
          ],
          [
            79.3931299,
            13.6598623
          ],
          [
            79.3928142,
            13.659852
          ],
          [
            79.3925758,
            13.6597885
          ],
          [
            79.392486,
            13.6597751
          ],
          [
            79.3919829,
            13.6596999
          ],
          [
            79.3915533,
            13.6596581
          ],
          [
            79.3913082,
            13.6596042
          ],
          [
            79.3910437,
            13.6595398
          ],
          [
            79.3908464,
            13.6595003
          ],
          [
            79.3906903,
            13.6595072
          ],
          [
            79.3902151,
            13.65949
          ],
          [
            79.3900246,
            13.6594351
          ],
          [
            79.3897038,
            13.6593819
          ],
          [
            79.3894516,
            13.6593716
          ],
          [
            79.3892303,
            13.6594591
          ],
          [
            79.388933,
            13.659581
          ]
        ]
      },
      "id": "way/30434845"
    },
    {
      "type": "Feature",
      "properties": {
        "@id": "way/30434846",
        "handrail": "yes",
        "highway": "steps",
        "incline": "up",
        "layer": "1",
        "lit": "yes",
        "source": "survey"
      },
      "geometry": {
        "type": "LineString",
        "coordinates": [
          [
            79.354873,
            13.6664646
          ],
          [
            79.3545154,
            13.6668652
          ],
          [
            79.3543235,
            13.6669947
          ],
          [
            79.3542188,
            13.6670379
          ],
          [
            79.354202,
            13.6671518
          ],
          [
            79.3539956,
            13.6674331
          ],
          [
            79.3539427,
            13.6677204
          ],
          [
            79.3537599,
            13.6680582
          ],
          [
            79.3537529,
            13.6686264
          ],
          [
            79.3535424,
            13.6687316
          ],
          [
            79.3533159,
            13.6687864
          ],
          [
            79.3531202,
            13.6687977
          ],
          [
            79.3528416,
            13.6687759
          ],
          [
            79.352561,
            13.6688602
          ],
          [
            79.3522658,
            13.6690265
          ],
          [
            79.3521665,
            13.6691397
          ],
          [
            79.3521738,
            13.66925
          ],
          [
            79.3522035,
            13.6693536
          ],
          [
            79.3523838,
            13.6697931
          ],
          [
            79.3524016,
            13.6701925
          ],
          [
            79.3524322,
            13.6709349
          ],
          [
            79.352451,
            13.6711121
          ],
          [
            79.3524885,
            13.6712919
          ],
          [
            79.3525556,
            13.6715239
          ],
          [
            79.3525663,
            13.6716177
          ],
          [
            79.3525314,
            13.6717689
          ],
          [
            79.3524724,
            13.6719278
          ],
          [
            79.3522763,
            13.6722993
          ],
          [
            79.3522163,
            13.672354
          ],
          [
            79.35214,
            13.6723898
          ],
          [
            79.3520688,
            13.6724191
          ],
          [
            79.3519377,
            13.672424
          ],
          [
            79.3518322,
            13.6723926
          ]
        ]
      },
      "id": "way/30434846"
    },
    {
      "type": "Feature",
      "properties": {
        "@id": "way/365041854",
        "highway": "footway",
        "lit": "yes"
      },
      "geometry": {
        "type": "LineString",
        "coordinates": [
          [
            79.3834564,
            13.6598184
          ],
          [
            79.3834584,
            13.6598801
          ],
          [
            79.3833127,
            13.6601496
          ],
          [
            79.383287,
            13.6605436
          ]
        ]
      },
      "id": "way/365041854"
    },
    {
      "type": "Feature",
      "properties": {
        "@id": "way/367434740",
        "covered": "yes",
        "handrail": "yes",
        "highway": "steps",
        "incline": "up",
        "lit": "yes"
      },
      "geometry": {
        "type": "LineString",
        "coordinates": [
          [
            79.3888658,
            13.6596085
          ],
          [
            79.3879196,
            13.6597542
          ],
          [
            79.3874152,
            13.6598469
          ],
          [
            79.3871064,
            13.6598537
          ],
          [
            79.3866569,
            13.6598194
          ],
          [
            79.3865419,
            13.6598023
          ],
          [
            79.3863324,
            13.659806
          ],
          [
            79.3859809,
            13.6597182
          ],
          [
            79.3857436,
            13.659665
          ],
          [
            79.3854474,
            13.6596307
          ],
          [
            79.3851412,
            13.6596099
          ],
          [
            79.3846535,
            13.659777
          ]
        ]
      },
      "id": "way/367434740"
    },
    {
      "type": "Feature",
      "properties": {
        "@id": "way/367434742",
        "covered": "yes",
        "handrail": "yes",
        "highway": "steps",
        "incline": "up",
        "layer": "-1",
        "lit": "yes",
        "tunnel": "yes"
      },
      "geometry": {
        "type": "LineString",
        "coordinates": [
          [
            79.3846535,
            13.659777
          ],
          [
            79.384529,
            13.6597068
          ]
        ]
      },
      "id": "way/367434742"
    },
    {
      "type": "Feature",
      "properties": {
        "@id": "way/367434743",
        "covered": "yes",
        "handrail": "yes",
        "highway": "steps",
        "incline": "up",
        "layer": "-1",
        "lit": "yes",
        "tunnel": "yes"
      },
      "geometry": {
        "type": "LineString",
        "coordinates": [
          [
            79.388933,
            13.659581
          ],
          [
            79.3888658,
            13.6596085
          ]
        ]
      },
      "id": "way/367434743"
    },
    {
      "type": "Feature",
      "properties": {
        "@id": "way/367434744",
        "covered": "yes",
        "handrail": "yes",
        "highway": "steps",
        "incline": "up",
        "lit": "yes"
      },
      "geometry": {
        "type": "LineString",
        "coordinates": [
          [
            79.384529,
            13.6597068
          ],
          [
            79.3839889,
            13.6597363
          ],
          [
            79.3837447,
            13.6597628
          ],
          [
            79.3835668,
            13.6598139
          ],
          [
            79.3834564,
            13.6598184
          ],
          [
            79.3827607,
            13.6600253
          ],
          [
            79.3826904,
            13.6600287
          ],
          [
            79.3826132,
            13.6600613
          ],
          [
            79.3824553,
            13.6600545
          ],
          [
            79.3818572,
            13.6601685
          ],
          [
            79.3811617,
            13.660389
          ],
          [
            79.3805424,
            13.6605451
          ],
          [
            79.379966,
            13.660787
          ],
          [
            79.3797721,
            13.6608351
          ],
          [
            79.3793517,
            13.6610073
          ],
          [
            79.3790182,
            13.6612124
          ],
          [
            79.3785611,
            13.6613952
          ],
          [
            79.3784006,
            13.6614742
          ],
          [
            79.3782424,
            13.6615039
          ],
          [
            79.3780695,
            13.6615508
          ],
          [
            79.3779262,
            13.6615706
          ],
          [
            79.3772913,
            13.6617756
          ],
          [
            79.3767106,
            13.6619468
          ],
          [
            79.3766028,
            13.6619544
          ],
          [
            79.3751395,
            13.662455
          ],
          [
            79.3748906,
            13.6625002
          ],
          [
            79.3740289,
            13.6626568
          ],
          [
            79.3732854,
            13.6627316
          ],
          [
            79.3729605,
            13.6627589
          ],
          [
            79.3727999,
            13.6626996
          ],
          [
            79.3718587,
            13.6627367
          ],
          [
            79.3717253,
            13.6627663
          ],
          [
            79.3715375,
            13.6628602
          ],
          [
            79.3712279,
            13.6631626
          ],
          [
            79.370532,
            13.6635989
          ],
          [
            79.3694747,
            13.6641967
          ],
          [
            79.3687539,
            13.6643316
          ],
          [
            79.3685814,
            13.664358
          ],
          [
            79.3681949,
            13.6644709
          ],
          [
            79.3676885,
            13.6645747
          ],
          [
            79.3675971,
            13.6645129
          ],
          [
            79.3674834,
            13.6645105
          ],
          [
            79.3672339,
            13.6646118
          ],
          [
            79.3660333,
            13.6645747
          ],
          [
            79.3657936,
            13.6646068
          ],
          [
            79.3656874,
            13.6646636
          ],
          [
            79.3655675,
            13.6647205
          ]
        ]
      },
      "id": "way/367434744"
    },
    {
      "type": "Feature",
      "properties": {
        "@id": "node/335871510",
        "name": "Security Checkpost for Tirumala",
        "police": "checkpoint",
        "source": "survey"
      },
      "geometry": {
        "type": "Point",
        "coordinates": [
          79.404308,
          13.6483202
        ]
      },
      "id": "node/335871510"
    },
    {
      "type": "Feature",
      "properties": {
        "@id": "node/3690868466",
        "highway": "crossing"
      },
      "geometry": {
        "type": "Point",
        "coordinates": [
          79.3524016,
          13.6701925
        ]
      },
      "id": "node/3690868466"
    }
  ]
}