<?xml version="1.0" encoding="UTF-8"?>
<kml xmlns="http://www.opengis.net/kml/2.2">
  <Document>
    <name>Untitled map</name>
    <description/>
    <Style id="icon-1899-DB4436-nodesc-normal">
      <IconStyle>
        <color>ff3644db</color>
        <scale>1</scale>
        <Icon>
          <href>https://www.gstatic.com/mapspro/images/stock/503-wht-blank_maps.png</href>
        </Icon>
        <hotSpot x="32" xunits="pixels" y="64" yunits="insetPixels"/>
      </IconStyle>
      <LabelStyle>
        <scale>0</scale>
      </LabelStyle>
      <BalloonStyle>
        <text><![CDATA[<h3>$[name]</h3>]]></text>
      </BalloonStyle>
    </Style>
    <Style id="icon-1899-DB4436-nodesc-highlight">
      <IconStyle>
        <color>ff3644db</color>
        <scale>1</scale>
        <Icon>
          <href>https://www.gstatic.com/mapspro/images/stock/503-wht-blank_maps.png</href>
        </Icon>
        <hotSpot x="32" xunits="pixels" y="64" yunits="insetPixels"/>
      </IconStyle>
      <LabelStyle>
        <scale>1</scale>
      </LabelStyle>
      <BalloonStyle>
        <text><![CDATA[<h3>$[name]</h3>]]></text>
      </BalloonStyle>
    </Style>
    <StyleMap id="icon-1899-DB4436-nodesc">
      <Pair>
        <key>normal</key>
        <styleUrl>#icon-1899-DB4436-nodesc-normal</styleUrl>
      </Pair>
      <Pair>
        <key>highlight</key>
        <styleUrl>#icon-1899-DB4436-nodesc-highlight</styleUrl>
      </Pair>
    </StyleMap>
    <Style id="line-1267FF-5000-nodesc-normal">
      <LineStyle>
        <color>ffff6712</color>
        <width>5</width>
      </LineStyle>
      <BalloonStyle>
        <text><![CDATA[<h3>$[name]</h3>]]></text>
      </BalloonStyle>
    </Style>
    <Style id="line-1267FF-5000-nodesc-highlight">
      <LineStyle>
        <color>ffff6712</color>
        <width>7.5</width>
      </LineStyle>
      <BalloonStyle>
        <text><![CDATA[<h3>$[name]</h3>]]></text>
      </BalloonStyle>
    </Style>
    <StyleMap id="line-1267FF-5000-nodesc">
      <Pair>
        <key>normal</key>
        <styleUrl>#line-1267FF-5000-nodesc-normal</styleUrl>
      </Pair>
      <Pair>
        <key>highlight</key>
        <styleUrl>#line-1267FF-5000-nodesc-highlight</styleUrl>
      </Pair>
    </StyleMap>
    <Folder>
      <name>Alipiri</name>
      <Placemark>
        <name>Alipiri</name>
        <styleUrl>#line-1267FF-5000-nodesc</styleUrl>
        <LineString>
          <tessellate>1</tessellate>
          <coordinates>
            79.40604,13.6462,0
            79.40583,13.64634,0
            79.40576,13.6464,0
            79.40567,13.64653,0
            79.40569,13.64652,0
            79.4057,13.64652,0
            79.40571,13.64652,0
            79.40572,13.64652,0
            79.40573,13.64652,0
            79.40574,13.64651,0
            79.40575,13.64652,0
            79.40576,13.64652,0
            79.40577,13.64652,0
            79.40578,13.64652,0
            79.40579,13.64652,0
            79.40581,13.64653,0
            79.40583,13.64655,0
            79.40583,13.64656,0
            79.40584,13.64656,0
            79.40584,13.64657,0
            79.40585,13.64658,0
            79.40585,13.64659,0
            79.40586,13.64659,0
            79.40586,13.6466,0
            79.40586,13.64661,0
            79.40587,13.64663,0
            79.40586,13.64665,0
            79.40586,13.64666,0
            79.40586,13.64667,0
            79.40586,13.64668,0
            79.40586,13.64669,0
            79.40585,13.64669,0
            79.40585,13.6467,0
            79.40585,13.64671,0
            79.40584,13.64671,0
            79.40584,13.64672,0
            79.40583,13.64672,0
            79.40583,13.64673,0
            79.40582,13.64673,0
            79.40582,13.64674,0
            79.40581,13.64674,0
            79.40581,13.64675,0
            79.40579,13.64676,0
            79.4058,13.64679,0
            79.40581,13.64682,0
            79.40582,13.64687,0
            79.40582,13.64693,0
            79.4058,13.64695,0
            79.40579,13.64696,0
            79.40577,13.64698,0
            79.40532,13.6468,0
            79.40506,13.64707,0
            79.40504,13.64709,0
            79.40488,13.64735,0
            79.40487,13.64737,0
            79.40482,13.64773,0
            79.40466,13.64768,0
            79.40461,13.64767,0
            79.40456,13.64768,0
            79.40448,13.64768,0
            79.40443,13.64771,0
            79.4044,13.64774,0
            79.40439,13.64776,0
            79.40437,13.6478,0
            79.40437,13.64781,0
            79.40437,13.64785,0
            79.40438,13.6479,0
            79.40438,13.64791,0
            79.4044,13.64796,0
            79.4044,13.64799,0
            79.4044,13.64806,0
            79.40439,13.64809,0
            79.40437,13.64814,0
            79.40433,13.64821,0
            79.4043,13.64824,0
            79.40426,13.64831,0
            79.40422,13.64836,0
            79.40419,13.64839,0
            79.40414,13.64845,0
            79.40407,13.64852,0
            79.40402,13.64858,0
            79.40394,13.64865,0
            79.40393,13.64867,0
            79.40388,13.64869,0
            79.40386,13.6487,0
            79.40379,13.64875,0
            79.40377,13.64877,0
            79.40367,13.64889,0
            79.40362,13.64895,0
            79.40357,13.64902,0
            79.40347,13.64919,0
            79.40343,13.64924,0
            79.40339,13.64935,0
            79.40333,13.6495,0
            79.4033,13.64963,0
            79.40329,13.64977,0
            79.40328,13.64985,0
            79.40328,13.64996,0
            79.40325,13.65013,0
            79.40322,13.65023,0
            79.4032,13.65028,0
            79.40315,13.65039,0
            79.40308,13.65056,0
            79.40307,13.65057,0
            79.40302,13.65073,0
            79.40298,13.65085,0
            79.40293,13.65097,0
            79.4029,13.65102,0
            79.40284,13.65112,0
            79.40275,13.65119,0
            79.40269,13.65124,0
            79.4026,13.65133,0
            79.40255,13.65136,0
            79.40251,13.65139,0
            79.40228,13.65166,0
            79.40225,13.65171,0
            79.40216,13.65183,0
            79.40214,13.65185,0
            79.40208,13.6519,0
            79.40204,13.65194,0
            79.402,13.65197,0
            79.40193,13.65202,0
            79.40185,13.65208,0
            79.40177,13.65215,0
            79.40166,13.65226,0
            79.40157,13.65235,0
            79.40147,13.65247,0
            79.40142,13.65254,0
            79.40137,13.6526,0
            79.40136,13.65262,0
            79.40126,13.65277,0
            79.40121,13.65283,0
            79.40118,13.65287,0
            79.40117,13.65291,0
            79.40117,13.65292,0
            79.40118,13.65296,0
            79.40118,13.653,0
            79.40119,13.65304,0
            79.4012,13.6531,0
            79.40118,13.65316,0
            79.40117,13.65317,0
            79.40115,13.65319,0
            79.40111,13.65322,0
            79.40109,13.65324,0
            79.40102,13.65328,0
            79.40093,13.65333,0
            79.40088,13.65335,0
            79.40086,13.65337,0
            79.40083,13.65339,0
            79.40081,13.65343,0
            79.4008,13.65345,0
            79.4008,13.65346,0
            79.40078,13.65358,0
            79.40077,13.65363,0
            79.40076,13.6538,0
            79.40074,13.65391,0
            79.40072,13.65402,0
            79.4007,13.65406,0
            79.40065,13.65415,0
            79.40064,13.65417,0
            79.40052,13.65429,0
            79.4004,13.65443,0
            79.40028,13.65454,0
            79.40022,13.6546,0
            79.40018,13.65464,0
            79.40005,13.65471,0
            79.39998,13.65474,0
            79.39981,13.65481,0
            79.39968,13.65487,0
            79.39964,13.65489,0
            79.3996,13.65493,0
            79.39959,13.65495,0
            79.39953,13.65503,0
            79.39951,13.65507,0
            79.39929,13.65529,0
            79.39929,13.6553,0
            79.39918,13.65544,0
            79.39917,13.65544,0
            79.3991,13.65553,0
            79.39907,13.65559,0
            79.39904,13.65567,0
            79.39901,13.65573,0
            79.399,13.65576,0
            79.39898,13.65583,0
            79.39894,13.65593,0
            79.39892,13.65601,0
            79.39888,13.6561,0
            79.39886,13.65617,0
            79.39881,13.65627,0
            79.39875,13.6564,0
            79.39873,13.65643,0
            79.39863,13.65658,0
            79.39855,13.65674,0
            79.39848,13.6569,0
            79.39841,13.657,0
            79.39836,13.65704,0
            79.39827,13.65718,0
            79.39813,13.65737,0
            79.3981,13.65742,0
            79.39798,13.65773,0
            79.39793,13.65781,0
            79.39779,13.65797,0
            79.39772,13.65804,0
            79.39769,13.65808,0
            79.39768,13.6581,0
            79.39767,13.6581,0
            79.39761,13.65818,0
            79.39759,13.65819,0
            79.39757,13.65821,0
            79.39754,13.65822,0
            79.3975,13.65824,0
            79.39744,13.65825,0
            79.39738,13.65827,0
            79.39736,13.65827,0
            79.39728,13.65828,0
            79.39724,13.65828,0
            79.39719,13.65827,0
            79.39718,13.65826,0
            79.39715,13.65826,0
            79.39711,13.65826,0
            79.39708,13.65828,0
            79.39707,13.65828,0
            79.39704,13.65831,0
            79.39703,13.65834,0
            79.39703,13.65836,0
            79.39698,13.65839,0
            79.39691,13.65843,0
            79.39685,13.65845,0
            79.39679,13.65849,0
            79.39676,13.65855,0
            79.39672,13.6586,0
            79.39667,13.65866,0
            79.39663,13.6587,0
            79.39658,13.65873,0
            79.39652,13.65877,0
            79.39648,13.6588,0
            79.39643,13.65883,0
            79.3964,13.65885,0
            79.39633,13.65888,0
            79.39632,13.65888,0
            79.39625,13.65891,0
            79.39618,13.65892,0
            79.39614,13.65893,0
            79.39612,13.65893,0
            79.39605,13.65895,0
            79.39596,13.65896,0
            79.39592,13.65896,0
            79.39586,13.65897,0
            79.39578,13.65899,0
            79.39569,13.65902,0
            79.3956,13.65905,0
            79.39554,13.65907,0
            79.39544,13.65913,0
            79.39537,13.65917,0
            79.39535,13.65917,0
            79.39524,13.65923,0
            79.39518,13.65924,0
            79.39507,13.65927,0
            79.39492,13.65929,0
            79.39488,13.65929,0
            79.39482,13.65932,0
            79.39468,13.6594,0
            79.39448,13.65953,0
            79.39429,13.65966,0
            79.39428,13.65967,0
            79.39414,13.65973,0
            79.39413,13.65973,0
            79.39402,13.65976,0
            79.39394,13.65977,0
            79.39388,13.65978,0
            79.39375,13.6598,0
            79.39363,13.65981,0
            79.39322,13.65991,0
            79.39321,13.65992,0
            79.39309,13.65994,0
            79.39303,13.65994,0
            79.39293,13.65994,0
            79.39292,13.65994,0
            79.39285,13.65993,0
            79.39273,13.6599,0
            79.39267,13.65989,0
            79.39259,13.65987,0
            79.39249,13.65985,0
            79.39229,13.65981,0
            79.39185,13.65972,0
            79.39176,13.6597,0
            79.39158,13.65966,0
            79.39144,13.65963,0
            79.39134,13.65961,0
            79.39111,13.65956,0
            79.39097,13.65954,0
            79.39089,13.65953,0
            79.39085,13.65953,0
            79.39068,13.65952,0
            79.39041,13.65954,0
            79.39022,13.65952,0
            79.39012,13.6595,0
            79.39002,13.65948,0
            79.38994,13.65946,0
            79.38987,13.65944,0
            79.38976,13.65944,0
            79.38976,13.65943,0
            79.38963,13.65943,0
            79.38958,13.65943,0
            79.38957,13.65943,0
            79.38953,13.65943,0
            79.38947,13.65944,0
            79.38916,13.65954,0
            79.38904,13.65958,0
            79.38897,13.65959,0
            79.38894,13.6596,0
            79.38886,13.65961,0
            79.3888,13.65962,0
            79.3885,13.65969,0
            79.3884,13.65971,0
            79.38832,13.65972,0
            79.38821,13.65974,0
            79.38796,13.65978,0
            79.38767,13.65984,0
            79.38748,13.65987,0
            79.38745,13.65988,0
            79.3873,13.65989,0
            79.38723,13.6599,0
            79.38722,13.6599,0
            79.38712,13.6599,0
            79.38693,13.65989,0
            79.38686,13.65988,0
            79.38656,13.65986,0
            79.38655,13.65986,0
            79.38649,13.65986,0
            79.38622,13.65983,0
            79.38619,13.65982,0
            79.38592,13.65975,0
            79.38584,13.65973,0
            79.38567,13.6597,0
            79.38559,13.65969,0
            79.38549,13.65968,0
            79.38547,13.65968,0
            79.3853,13.65965,0
            79.38529,13.65966,0
            79.38522,13.65967,0
            79.38514,13.65968,0
            79.38502,13.65974,0
            79.38482,13.6598,0
            79.38476,13.65981,0
            79.38474,13.65981,0
            79.38469,13.6598,0
            79.38461,13.6598,0
            79.38457,13.6598,0
            79.38441,13.6598,0
            79.38431,13.65981,0
            79.38415,13.65982,0
            79.38393,13.65984,0
            79.38384,13.65986,0
            79.38366,13.65989,0
            79.38348,13.65993,0
            79.38329,13.65996,0
            79.38323,13.65998,0
            79.38312,13.66,0
            79.38304,13.66001,0
            79.38293,13.66003,0
            79.38276,13.66007,0
            79.38209,13.66018,0
            79.38202,13.6602,0
            79.38177,13.66028,0
            79.38141,13.6604,0
            79.3811,13.66049,0
            79.38084,13.66056,0
            79.38079,13.66058,0
            79.38043,13.6607,0
            79.38016,13.66079,0
            79.37992,13.66088,0
            79.37971,13.66097,0
            79.37958,13.66103,0
            79.37945,13.6611,0
            79.37925,13.66122,0
            79.37909,13.66129,0
            79.37906,13.66131,0
            79.37892,13.66136,0
            79.37876,13.66142,0
            79.37852,13.66149,0
            79.3783,13.66155,0
            79.37821,13.66157,0
            79.37806,13.66162,0
            79.37804,13.66163,0
            79.37761,13.66175,0
            79.37729,13.66185,0
            79.37693,13.66196,0
            79.37674,13.66201,0
            79.37648,13.66209,0
            79.37635,13.66213,0
            79.37627,13.66215,0
            79.37621,13.66217,0
            79.37594,13.66226,0
            79.37566,13.66234,0
            79.37539,13.66244,0
            79.37514,13.66249,0
            79.37495,13.66254,0
            79.37476,13.66259,0
            79.37475,13.66259,0
            79.3744,13.66264,0
            79.37413,13.6627,0
            79.37393,13.66273,0
            79.37373,13.66275,0
            79.37347,13.66277,0
            79.37342,13.66277,0
            79.3733,13.66277,0
            79.37329,13.66278,0
            79.37312,13.66279,0
            79.37291,13.66278,0
            79.37257,13.66275,0
            79.37244,13.66275,0
            79.37237,13.66275,0
            79.37225,13.66274,0
            79.37218,13.66274,0
            79.37214,13.66273,0
            79.37205,13.66273,0
            79.37199,13.66273,0
            79.37181,13.66277,0
            79.37175,13.66278,0
            79.37165,13.66282,0
            79.37157,13.66287,0
            79.3715,13.66294,0
            79.37144,13.66302,0
            79.37136,13.6631,0
            79.37128,13.66319,0
            79.37116,13.66329,0
            79.37096,13.66343,0
            79.37072,13.66357,0
            79.3704,13.66374,0
            79.37028,13.66381,0
            79.37024,13.66383,0
            79.37006,13.66392,0
            79.36992,13.66399,0
            79.36988,13.66401,0
            79.36969,13.6641,0
            79.36958,13.66414,0
            79.36958,13.66415,0
            79.36945,13.6642,0
            79.36941,13.66421,0
            79.36941,13.66422,0
            79.36929,13.66425,0
            79.3691,13.66431,0
            79.36906,13.66432,0
            79.36887,13.66437,0
            79.36874,13.6644,0
            79.36852,13.66443,0
            79.36805,13.66451,0
            79.36779,13.66455,0
            79.36746,13.6646,0
            79.36738,13.66463,0
            79.36731,13.66465,0
            79.36725,13.66465,0
            79.36723,13.66465,0
            79.36718,13.66465,0
            79.36711,13.66464,0
            79.36705,13.66464,0
            79.36697,13.66462,0
            79.36675,13.66462,0
            79.36668,13.66463,0
            79.36661,13.66463,0
            79.36649,13.66463,0
            79.36636,13.66463,0
            79.36621,13.66463,0
            79.36613,13.66463,0
            79.36593,13.66461,0
            79.36585,13.6646,0
            79.36576,13.6646,0
            79.36568,13.66462,0
            79.36563,13.66466,0
            79.36557,13.66473,0
            79.36552,13.66476,0
            79.36548,13.66479,0
            79.36542,13.66483,0
            79.36518,13.66505,0
            79.36501,13.6654,0
            79.36498,13.66543,0
            79.36493,13.6655,0
            79.36486,13.66555,0
            79.36485,13.66556,0
            79.3648,13.66558,0
            79.36473,13.66558,0
            79.36467,13.66557,0
            79.36463,13.66557,0
            79.3645,13.66552,0
            79.36438,13.66548,0
            79.3641,13.66534,0
            79.364,13.66528,0
            79.36384,13.66518,0
            79.36383,13.66517,0
            79.36322,13.66488,0
            79.36318,13.66486,0
            79.36299,13.66477,0
            79.3627,13.6646,0
            79.36264,13.66456,0
            79.36255,13.66453,0
            79.36253,13.66452,0
            79.36251,13.66451,0
            79.36247,13.66449,0
            79.36237,13.6645,0
            79.36235,13.6645,0
            79.3622,13.66452,0
            79.36199,13.66452,0
            79.36198,13.66452,0
            79.36168,13.66451,0
            79.36145,13.66451,0
            79.36143,13.66451,0
            79.3613,13.66451,0
            79.36119,13.66452,0
            79.3611,13.66452,0
            79.36106,13.66453,0
            79.361,13.66455,0
            79.36088,13.66458,0
            79.36072,13.66465,0
            79.36031,13.66482,0
            79.3602,13.66486,0
            79.36017,13.66488,0
            79.36004,13.66492,0
            79.36002,13.66492,0
            79.35991,13.66494,0
            79.35987,13.66495,0
            79.35978,13.66496,0
            79.35966,13.66498,0
            79.35958,13.665,0
            79.35948,13.66504,0
            79.35946,13.66504,0
            79.35938,13.66508,0
            79.3593,13.66512,0
            79.35926,13.66515,0
            79.35921,13.66524,0
            79.3592,13.66529,0
            79.35919,13.66533,0
            79.35918,13.66538,0
            79.35913,13.6654,0
            79.3591,13.66541,0
            79.35906,13.66541,0
            79.359,13.6654,0
            79.35897,13.66539,0
            79.35893,13.66536,0
            79.35885,13.66526,0
            79.3587,13.66508,0
            79.35864,13.66501,0
            79.35859,13.66497,0
            79.35855,13.66494,0
            79.35848,13.66493,0
            79.35842,13.66492,0
            79.35833,13.66492,0
            79.35824,13.66491,0
            79.35819,13.66491,0
            79.35806,13.66491,0
            79.35805,13.66491,0
            79.35794,13.66489,0
            79.35786,13.66486,0
            79.3578,13.66483,0
            79.35776,13.66481,0
            79.3577,13.6648,0
            79.35769,13.6648,0
            79.35762,13.6648,0
            79.35755,13.66482,0
            79.3575,13.66484,0
            79.35736,13.66492,0
            79.3573,13.66496,0
            79.35721,13.665,0
            79.35714,13.66503,0
            79.35702,13.66507,0
            79.35696,13.66509,0
            79.35685,13.66513,0
            79.35658,13.66522,0
            79.3565,13.66524,0
            79.35643,13.66526,0
            79.35628,13.66528,0
            79.35616,13.66526,0
            79.35613,13.66525,0
            79.35608,13.66524,0
            79.35599,13.66523,0
            79.35593,13.66522,0
            79.35588,13.66524,0
            79.35583,13.66529,0
            79.3558,13.66533,0
            79.35557,13.66559,0
            79.35557,13.6656,0
            79.35545,13.66574,0
            79.35534,13.66589,0
            79.35523,13.66603,0
            79.3549,13.66646,0
            79.35493,13.66652,0
            79.35491,13.66658,0
            79.35487,13.66663,0
            79.35483,13.66666,0
            79.35477,13.66671,0
            79.35469,13.66678,0
            79.35455,13.66689,0
            79.35439,13.66699,0
            79.35435,13.66702,0
            79.35431,13.66705,0
            79.35426,13.66712,0
            79.35425,13.66713,0
            79.3542,13.66722,0
            79.35413,13.6673,0
            79.35406,13.66741,0
            79.35403,13.66747,0
            79.35401,13.66756,0
            79.35401,13.66759,0
            79.354,13.66764,0
            79.35397,13.66772,0
            79.35396,13.66776,0
            79.35394,13.66779,0
            79.35391,13.66785,0
            79.35388,13.66792,0
            79.35385,13.66799,0
            79.35381,13.66809,0
            79.35375,13.66823,0
            79.35375,13.66826,0
            79.35371,13.66837,0
            79.35369,13.66843,0
            79.35367,13.66848,0
            79.3536,13.66858,0
            79.35355,13.66862,0
            79.35348,13.66865,0
            79.35343,13.66865,0
            79.35325,13.66868,0
            79.35307,13.6687,0
            79.35288,13.66873,0
            79.35272,13.66876,0
            79.3527,13.66876,0
            79.35265,13.66878,0
            79.35258,13.66882,0
            79.3524,13.66892,0
            79.35238,13.66894,0
            79.35228,13.66901,0
            79.35224,13.66906,0
            79.3522,13.66911,0
            79.35219,13.66916,0
            79.35219,13.66922,0
            79.3522,13.66928,0
            79.35222,13.66934,0
            79.35226,13.66943,0
            79.35231,13.66956,0
            79.35236,13.6697,0
            79.35237,13.66973,0
            79.3524,13.66985,0
            79.3524,13.66991,0
            79.35241,13.67,0
            79.35244,13.67016,0
            79.35243,13.67026,0
            79.35237,13.67062,0
            79.35236,13.67069,0
            79.35235,13.67094,0
            79.3524,13.67115,0
            79.35244,13.67133,0
            79.35246,13.67139,0
            79.35249,13.67149,0
            79.3525,13.67155,0
            79.3525,13.67159,0
            79.35247,13.67165,0
            79.35247,13.6717,0
            79.35248,13.67174,0
          </coordinates>
        </LineString>
      </Placemark>
      <Placemark>
        <name>6-9-1369/A1, Alipiri Rd, Srinivasa Nagar, Dwaraka Nagar, Tirupati, Andhra Pradesh 517507, India</name>
        <styleUrl>#icon-1899-DB4436-nodesc</styleUrl>
        <Point>
          <coordinates>
            79.4060377,13.646203,0
          </coordinates>
        </Point>
      </Placemark>
      <Placemark>
        <name>M9C3+P4V, Tirumala Down Rd, Tirumala, Tirupathi, Tirupati Urban, Andhra Pradesh 517504, India</name>
        <styleUrl>#icon-1899-DB4436-nodesc</styleUrl>
        <Point>
          <coordinates>
            79.352475,13.6717359,0
          </coordinates>
        </Point>
      </Placemark>
    </Folder>
  </Document>
</kml>
